{
  "type": "FeatureCollection",
  "features": [
    {
      "type": "Feature",
      "properties": {
        "norad_id": 25590,
        "name": "COSMOS 2361",
        "group": "musson",
        "lat": 70.23000381766373,
        "lon": 10.619844987647712,
        "alt_km": 998.4827449337918,
        "timestamp": "2025-12-04T03:47:54.813059+00:00",
        "meta_object_name": "COSMOS 2361",
        "meta_object_id": "1998-076A",
        "meta_epoch": "2025-12-03T14:03:29.613024",
        "meta_mean_motion": 13.73215969,
        "meta_eccentricity": 0.0030156,
        "meta_inclination": 82.9342,
        "meta_ra_of_asc_node": 350.8575,
        "meta_arg_of_pericenter": 292.187,
        "meta_mean_anomaly": 190.4432,
        "meta_ephemeris_type": 0,
        "meta_classification_type": "U",
        "meta_norad_cat_id": 25590,
        "meta_element_set_no": 999,
        "meta_rev_at_epoch": 34985,
        "meta_bstar": 8.9609e-05,
        "meta_mean_motion_dot": 9.8e-07,
        "meta_mean_motion_ddot": 0,
        "tle_line1": "1 25590U 98076A   25337.58575941  .00000098  00000+0  89609-4 0  9997",
        "tle_line2": "2 25590  82.9342 350.8575 0030156 292.1870 190.4432 13.73215969349856"
      },
      "geometry": {
        "type": "Point",
        "coordinates": [
          10.619844987647712,
          70.23000381766373
        ]
      }
    },
    {
      "type": "Feature",
      "properties": {
        "norad_id": 26818,
        "name": "COSMOS 2378",
        "group": "musson",
        "lat": 63.971685378257746,
        "lon": 171.36235308949787,
        "alt_km": 988.1347856796974,
        "timestamp": "2025-12-04T03:47:54.813080+00:00",
        "meta_object_name": "COSMOS 2378",
        "meta_object_id": "2001-023A",
        "meta_epoch": "2025-12-03T17:25:20.803872",
        "meta_mean_motion": 13.74140779,
        "meta_eccentricity": 0.0031935,
        "meta_inclination": 82.928,
        "meta_ra_of_asc_node": 6.4088,
        "meta_arg_of_pericenter": 230.6051,
        "meta_mean_anomaly": 267.2647,
        "meta_ephemeris_type": 0,
        "meta_classification_type": "U",
        "meta_norad_cat_id": 26818,
        "meta_element_set_no": 999,
        "meta_rev_at_epoch": 22799,
        "meta_bstar": 7.6593e-05,
        "meta_mean_motion_dot": 8.7e-07,
        "meta_mean_motion_ddot": 0,
        "tle_line1": "1 26818U 01023A   25337.72593523  .00000087  00000+0  76593-4 0  9995",
        "tle_line2": "2 26818  82.9280   6.4088 0031935 230.6051 267.2647 13.74140779227996"
      },
      "geometry": {
        "type": "Point",
        "coordinates": [
          171.36235308949787,
          63.971685378257746
        ]
      }
    },
    {
      "type": "Feature",
      "properties": {
        "norad_id": 27436,
        "name": "COSMOS 2389",
        "group": "musson",
        "lat": -68.0825919478443,
        "lon": -64.57541247692333,
        "alt_km": 1019.7453804446595,
        "timestamp": "2025-12-04T03:47:54.813093+00:00",
        "meta_object_name": "COSMOS 2389",
        "meta_object_id": "2002-026A",
        "meta_epoch": "2025-12-03T16:44:39.159744",
        "meta_mean_motion": 13.75153162,
        "meta_eccentricity": 0.0047775,
        "meta_inclination": 82.9494,
        "meta_ra_of_asc_node": 313.6792,
        "meta_arg_of_pericenter": 85.3008,
        "meta_mean_anomaly": 86.8683,
        "meta_ephemeris_type": 0,
        "meta_classification_type": "U",
        "meta_norad_cat_id": 27436,
        "meta_element_set_no": 999,
        "meta_rev_at_epoch": 18024,
        "meta_bstar": 6.8133e-05,
        "meta_mean_motion_dot": 8.1e-07,
        "meta_mean_motion_ddot": 0,
        "tle_line1": "1 27436U 02026A   25337.69767546  .00000081  00000+0  68133-4 0  9995",
        "tle_line2": "2 27436  82.9494 313.6792 0047775  85.3008  86.8683 13.75153162180243"
      },
      "geometry": {
        "type": "Point",
        "coordinates": [
          -64.57541247692333,
          -68.0825919478443
        ]
      }
    },
    {
      "type": "Feature",
      "properties": {
        "norad_id": 27818,
        "name": "COSMOS 2398",
        "group": "musson",
        "lat": -30.74183961443781,
        "lon": -85.19957710119957,
        "alt_km": 1019.9714649298576,
        "timestamp": "2025-12-04T03:47:54.813105+00:00",
        "meta_object_name": "COSMOS 2398",
        "meta_object_id": "2003-023A",
        "meta_epoch": "2025-12-03T09:17:02.662368",
        "meta_mean_motion": 13.7238429,
        "meta_eccentricity": 0.0032224,
        "meta_inclination": 82.9475,
        "meta_ra_of_asc_node": 279.591,
        "meta_arg_of_pericenter": 136.9059,
        "meta_mean_anomaly": 343.0817,
        "meta_ephemeris_type": 0,
        "meta_classification_type": "U",
        "meta_norad_cat_id": 27818,
        "meta_element_set_no": 999,
        "meta_rev_at_epoch": 12688,
        "meta_bstar": 4.677e-05,
        "meta_mean_motion_dot": 5.8e-07,
        "meta_mean_motion_ddot": 0,
        "tle_line1": "1 27818U 03023A   25337.38683637  .00000058  00000+0  46770-4 0  9998",
        "tle_line2": "2 27818  82.9475 279.5910 0032224 136.9059 343.0817 13.72384290126882"
      },
      "geometry": {
        "type": "Point",
        "coordinates": [
          -85.19957710119957,
          -30.74183961443781
        ]
      }
    },
    {
      "type": "Feature",
      "properties": {
        "norad_id": 28380,
        "name": "COSMOS 2407",
        "group": "musson",
        "lat": 42.9948126611344,
        "lon": -134.13984489267997,
        "alt_km": 948.830964866238,
        "timestamp": "2025-12-04T03:47:54.813115+00:00",
        "meta_object_name": "COSMOS 2407",
        "meta_object_id": "2004-028A",
        "meta_epoch": "2025-12-03T19:12:08.773056",
        "meta_mean_motion": 13.76312141,
        "meta_eccentricity": 0.0040525,
        "meta_inclination": 82.9613,
        "meta_ra_of_asc_node": 219.5109,
        "meta_arg_of_pericenter": 79.0926,
        "meta_mean_anomaly": 351.011,
        "meta_ephemeris_type": 0,
        "meta_classification_type": "U",
        "meta_norad_cat_id": 28380,
        "meta_element_set_no": 999,
        "meta_rev_at_epoch": 7300,
        "meta_bstar": 9.9857e-05,
        "meta_mean_motion_dot": 1.14e-06,
        "meta_mean_motion_ddot": 0,
        "tle_line1": "1 28380U 04028A   25337.80010154  .00000114  00000+0  99857-4 0  9991",
        "tle_line2": "2 28380  82.9613 219.5109 0040525  79.0926 351.0110 13.76312141 73008"
      },
      "geometry": {
        "type": "Point",
        "coordinates": [
          -134.13984489267997,
          42.9948126611344
        ]
      }
    },
    {
      "type": "Feature",
      "properties": {
        "norad_id": 28521,
        "name": "COSMOS 2414",
        "group": "musson",
        "lat": -49.6703522191593,
        "lon": -177.23309204345847,
        "alt_km": 967.3368043622513,
        "timestamp": "2025-12-04T03:47:54.813126+00:00",
        "meta_object_name": "COSMOS 2414",
        "meta_object_id": "2005-002A",
        "meta_epoch": "2025-12-03T17:39:37.668096",
        "meta_mean_motion": 13.87901131,
        "meta_eccentricity": 0.0040343,
        "meta_inclination": 82.9499,
        "meta_ra_of_asc_node": 191.468,
        "meta_arg_of_pericenter": 164.9748,
        "meta_mean_anomaly": 195.2625,
        "meta_ephemeris_type": 0,
        "meta_classification_type": "U",
        "meta_norad_cat_id": 28521,
        "meta_element_set_no": 999,
        "meta_rev_at_epoch": 5670,
        "meta_bstar": 9.3001e-05,
        "meta_mean_motion_dot": 1.27e-06,
        "meta_mean_motion_ddot": 0,
        "tle_line1": "1 28521U 05002A   25337.73585264  .00000127  00000+0  93001-4 0  9991",
        "tle_line2": "2 28521  82.9499 191.4680 0040343 164.9748 195.2625 13.87901131 56705"
      },
      "geometry": {
        "type": "Point",
        "coordinates": [
          -177.23309204345847,
          -49.6703522191593
        ]
      }
    },
    {
      "type": "Feature",
      "properties": {
        "norad_id": 32052,
        "name": "COSMOS 2429",
        "group": "musson",
        "lat": 61.63236812802578,
        "lon": 156.4463579180879,
        "alt_km": 958.9092680890208,
        "timestamp": "2025-12-04T03:47:54.813136+00:00",
        "meta_object_name": "COSMOS 2429",
        "meta_object_id": "2007-038A",
        "meta_epoch": "2025-12-03T11:30:59.967936",
        "meta_mean_motion": 13.75148024,
        "meta_eccentricity": 0.0039622,
        "meta_inclination": 82.9805,
        "meta_ra_of_asc_node": 350.1357,
        "meta_arg_of_pericenter": 63.0529,
        "meta_mean_anomaly": 297.4666,
        "meta_ephemeris_type": 0,
        "meta_classification_type": "U",
        "meta_norad_cat_id": 32052,
        "meta_element_set_no": 999,
        "meta_rev_at_epoch": 91475,
        "meta_bstar": 7.316e-05,
        "meta_mean_motion_dot": 8.6e-07,
        "meta_mean_motion_ddot": 0,
        "tle_line1": "1 32052U 07038A   25337.47986074  .00000086  00000+0  73160-4 0  9999",
        "tle_line2": "2 32052  82.9805 350.1357 0039622  63.0529 297.4666 13.75148024914758"
      },
      "geometry": {
        "type": "Point",
        "coordinates": [
          156.4463579180879,
          61.63236812802578
        ]
      }
    },
    {
      "type": "Feature",
      "properties": {
        "norad_id": 35635,
        "name": "COSMOS 2454",
        "group": "musson",
        "lat": -61.96847881350557,
        "lon": 161.72099387996474,
        "alt_km": 950.0695044995209,
        "timestamp": "2025-12-04T03:47:54.813147+00:00",
        "meta_object_name": "COSMOS 2454",
        "meta_object_id": "2009-039A",
        "meta_epoch": "2025-12-03T12:49:56.586144",
        "meta_mean_motion": 13.89926796,
        "meta_eccentricity": 0.0020482,
        "meta_inclination": 82.9556,
        "meta_ra_of_asc_node": 175.6227,
        "meta_arg_of_pericenter": 98.3487,
        "meta_mean_anomaly": 320.4945,
        "meta_ephemeris_type": 0,
        "meta_classification_type": "U",
        "meta_norad_cat_id": 35635,
        "meta_element_set_no": 999,
        "meta_rev_at_epoch": 83022,
        "meta_bstar": 7.4731e-05,
        "meta_mean_motion_dot": 1.08e-06,
        "meta_mean_motion_ddot": 0,
        "tle_line1": "1 35635U 09039A   25337.53468271  .00000108  00000+0  74731-4 0  9993",
        "tle_line2": "2 35635  82.9556 175.6227 0020482  98.3487 320.4945 13.89926796830226"
      },
      "geometry": {
        "type": "Point",
        "coordinates": [
          161.72099387996474,
          -61.96847881350557
        ]
      }
    },
    {
      "type": "Feature",
      "properties": {
        "norad_id": 36519,
        "name": "COSMOS 2463",
        "group": "musson",
        "lat": -1.3442622127383586,
        "lon": -146.81545402010784,
        "alt_km": 1013.8169044888418,
        "timestamp": "2025-12-04T03:47:54.813157+00:00",
        "meta_object_name": "COSMOS 2463",
        "meta_object_id": "2010-017A",
        "meta_epoch": "2025-12-03T16:58:14.708352",
        "meta_mean_motion": 13.71647895,
        "meta_eccentricity": 0.0035099,
        "meta_inclination": 82.9621,
        "meta_ra_of_asc_node": 33.3498,
        "meta_arg_of_pericenter": 313.9615,
        "meta_mean_anomaly": 161.0406,
        "meta_ephemeris_type": 0,
        "meta_classification_type": "U",
        "meta_norad_cat_id": 36519,
        "meta_element_set_no": 999,
        "meta_rev_at_epoch": 78113,
        "meta_bstar": 8.2612e-05,
        "meta_mean_motion_dot": 9e-07,
        "meta_mean_motion_ddot": 0,
        "tle_line1": "1 36519U 10017A   25337.70711468  .00000090  00000+0  82612-4 0  9998",
        "tle_line2": "2 36519  82.9621  33.3498 0035099 313.9615 161.0406 13.71647895781137"
      },
      "geometry": {
        "type": "Point",
        "coordinates": [
          -146.81545402010784,
          -1.3442622127383586
        ]
      }
    }
  ]
}